     2.100          NAVIGATION                              RINEX VERSION / TYPE
fic2rin                                 07/30/2017 00:05:33 PGM / RUN BY / DATE
                                                            END OF HEADER
 5 17  7 30  0  0  0.0 -.352859497070D-04  .147792889038D-11  .000000000000D+00
     .190000000000D+02 -.379687500000D+02  .513342811360D-08  .129995542891D+01
    -.174343585968D-05  .512068206444D-02  .850111246109D-05  .515379636955D+04
     .000000000000D+00  .428408384323D-07 -.261751193621D+01  .156462192535D-06
     .947144331540D+00  .209250000000D+03  .559825452920D+00 -.836427697714D-08
    -.227866634417D-09  .100000000000D+01  .196000000000D+04  .000000000000D+00
     .240000000000D+01  .000000000000D+00 -.107102096081D-07  .190000000000D+02
     .597606000000D+06  .400000000000D+01
 6 17  7 30  0  0  0.0  .382750295103D-03  .420641299570D-11  .000000000000D+00
     .220000000000D+02 -.153750000000D+02  .467805200250D-08 -.156210956020D+01
    -.769272446632D-06  .645229243673D-03  .593997538090D-05  .515371543694D+04
     .000000000000D+00  .372529029846D-08  .263287855938D+01  .558793544769D-08
     .968072486482D+00  .272781250000D+03 -.104185527476D+01 -.815605401810D-08
     .236438420038D-09  .100000000000D+01  .196000000000D+04  .000000000000D+00
     .240000000000D+01  .000000000000D+00  .465661287308D-08  .220000000000D+02
     .597606000000D+06  .400000000000D+01
 7 17  7 30  0  0  0.0  .322054605931D-03 -.466116034659D-11  .000000000000D+00
     .380000000000D+02  .360625000000D+02  .454054627483D-08 -.225909170371D+01
     .179186463356D-05  .109081589617D-01  .542774796486D-05  .515372761536D+04
     .000000000000D+00  .558793544769D-07 -.485289320351D+00 -.108033418655D-06
     .961749113785D+00  .275437500000D+03 -.257855463988D+01 -.805819279893D-08
     .678599694973D-11  .100000000000D+01  .196000000000D+04  .000000000000D+00
     .240000000000D+01  .000000000000D+00 -.111758708954D-07  .380000000000D+02
     .597606000000D+06  .400000000000D+01
 8 17  7 30  0  0  0.0 -.680745579302D-04 -.125055521494D-11  .000000000000D+00
     .340000000000D+02 -.340625000000D+01  .420446084696D-08  .104965425196D+01
    -.109896063805D-06  .253945204895D-02  .814348459244D-05  .515367022896D+04
     .000000000000D+00  .987201929092D-07  .157767955678D+01 -.391155481339D-07
     .967041375006D+00  .226125000000D+03 -.625835736959D+00 -.796890336538D-08
     .242867259253D-09  .100000000000D+01  .196000000000D+04  .000000000000D+00
     .240000000000D+01  .000000000000D+00  .512227416039D-08  .340000000000D+02
     .597606000000D+06  .400000000000D+01
 9 17  7 30  0  0  0.0  .415361020714D-03  .727595761418D-11  .000000000000D+00
     .510000000000D+02  .349375000000D+02  .466555148180D-08  .635838249147D+00
     .171922147274D-05  .653293565847D-03  .929646193981D-05  .515358800888D+04
     .000000000000D+00 -.372529029846D-07 -.156390603677D+01 -.186264514923D-08
     .952988583937D+00  .196500000000D+03  .192293132195D+01 -.806426448041D-08
    -.460733477113D-10  .100000000000D+01  .196000000000D+04  .000000000000D+00
     .240000000000D+01  .000000000000D+00  .139698386192D-08  .510000000000D+02
     .597606000000D+06  .400000000000D+01
10 17  7 30  0  0  0.0  .219410285354D-04  .113686837722D-10  .000000000000D+00
     .156000000000D+03 -.412812500000D+02  .476198407004D-08  .253232997030D+01
    -.206567347050D-05  .264236785006D-02  .812113285065D-05  .515367092705D+04
     .000000000000D+00 -.558793544769D-07 -.260348259864D+01 -.428408384323D-07
     .960344864573D+00  .224187500000D+03 -.279511845652D+01 -.808069373619D-08
    -.150720563831D-09  .100000000000D+01  .196000000000D+04  .000000000000D+00
     .240000000000D+01  .000000000000D+00  .186264514923D-08  .156000000000D+03
     .597606000000D+06  .400000000000D+01
11 17  7 30  0  0  0.0 -.705672893673D-03 -.261479726760D-11  .000000000000D+00
     .104000000000D+03  .887500000000D+01  .584095758504D-08 -.223341250580D+01
     .687316060066D-06  .170045441482D-01  .530853867531D-05  .515372306442D+04
     .000000000000D+00  .175088644028D-06  .223454354921D+01  .163912773132D-06
     .901681633082D+00  .238156250000D+03  .166898110504D+01 -.855928510001D-08
     .398588031363D-09  .100000000000D+01  .196000000000D+04  .000000000000D+00
     .340000000000D+01  .000000000000D+00 -.121071934700D-07  .104000000000D+03
     .597606000000D+06  .400000000000D+01
12 17  7 30  0  0  0.0  .377536751330D-03 -.113686837722D-11  .000000000000D+00
     .780000000000D+02 -.260937500000D+02  .370979738509D-08 -.287905175016D+01
    -.127404928207D-05  .659093318973D-02  .738725066185D-05  .515374746704D+04
     .000000000000D+00  .316649675369D-07  .599999842962D+00 -.745058059692D-08
     .989012160441D+00  .250218750000D+03  .911877206569D+00 -.768496296670D-08
    -.184293390845D-09  .100000000000D+01  .196000000000D+04  .000000000000D+00
     .240000000000D+01  .000000000000D+00 -.125728547573D-07  .780000000000D+02
     .597606000000D+06  .400000000000D+01
13 17  7 30  0  0  0.0 -.885808840394D-04 -.795807864051D-12  .000000000000D+00
     .850000000000D+02  .545625000000D+02  .437339645523D-08 -.111801908802D+01
     .277906656265D-05  .352593185380D-02  .927038490772D-05  .515369794273D+04
     .000000000000D+00 -.763684511185D-07 -.143668254677D+01  .186264514923D-08
     .968992767284D+00  .201375000000D+03  .179842798475D+01 -.801569102856D-08
    -.507163982558D-10  .100000000000D+01  .196000000000D+04  .000000000000D+00
     .240000000000D+01  .000000000000D+00 -.111758708954D-07  .850000000000D+02
     .597606000000D+06  .400000000000D+01
14 17  7 30  0  0  0.0 -.792420469224D-04 -.113686837722D-11  .000000000000D+00
     .920000000000D+02  .385625000000D+02  .460090593191D-08  .224755230392D+00
     .214576721191D-05  .933640496805D-02  .953488051891D-05  .515367801476D+04
     .000000000000D+00 -.894069671631D-07 -.147657744631D+01  .670552253723D-07
     .961514480743D+00  .197968750000D+03 -.195193310672D+01 -.818569811004D-08
    -.760745973838D-10  .100000000000D+01  .196000000000D+04  .000000000000D+00
     .240000000000D+01  .000000000000D+00 -.931322574615D-08  .920000000000D+02
     .597606000000D+06  .400000000000D+01
15 17  7 30  0  0  0.0 -.354000367224D-03 -.568434188608D-12  .000000000000D+00
     .510000000000D+02  .348437500000D+02  .533772233756D-08 -.324296375080D+00
     .175274908543D-05  .938109029084D-02  .961869955063D-05  .515358409691D+04
     .000000000000D+00  .391155481339D-07 -.162710196632D+01  .126659870148D-06
     .928602611455D+00  .174656250000D+03  .585672184214D+00 -.853106963901D-08
    -.131434046184D-09  .100000000000D+01  .196000000000D+04  .000000000000D+00
     .240000000000D+01  .000000000000D+00 -.107102096081D-07  .510000000000D+02
     .597606000000D+06  .400000000000D+01
16 17  7 30  0  0  0.0  .363835133612D-04  .227373675443D-12  .000000000000D+00
     .900000000000D+02 -.243125000000D+02  .377229998858D-08  .144444643003D+01
    -.118091702461D-05  .928274891339D-02  .713206827641D-05  .515373610497D+04
     .000000000000D+00 -.987201929092D-07  .618862114731D+00  .372529029846D-08
     .989470788184D+00  .260125000000D+03  .463342093749D+00 -.782389732530D-08
    -.293226499775D-09  .100000000000D+01  .196000000000D+04  .000000000000D+00
     .340000000000D+01  .000000000000D+00 -.107102096081D-07  .900000000000D+02
     .597606000000D+06  .400000000000D+01
17 17  7 30  0  0  0.0 -.166574958712D-03  .227373675443D-11  .000000000000D+00
     .710000000000D+02  .696875000000D+01  .403623955415D-08  .539643449104D+00
     .182539224625D-06  .117008432280D-01  .827014446259D-05  .515366521454D+04
     .000000000000D+00 -.208616256714D-06  .163612255765D+01 -.279396772385D-07
     .980304665761D+00  .230500000000D+03 -.184726435955D+01 -.803997775449D-08
     .185364864048D-09  .100000000000D+01  .196000000000D+04  .000000000000D+00
     .240000000000D+01  .000000000000D+00 -.111758708954D-07  .710000000000D+02
     .597606000000D+06  .400000000000D+01
18 17  7 30  0  0  0.0  .625401735306D-03  .125055521494D-11  .000000000000D+00
     .860000000000D+02 -.521875000000D+02  .547058501468D-08  .199438591852D+01
    -.298209488392D-05  .181385765318D-01  .764802098274D-05  .515361931038D+04
     .000000000000D+00  .154599547386D-06 -.264790249984D+01 -.409781932831D-06
     .925984239715D+00  .212500000000D+03 -.178927610383D+01 -.831570352529D-08
    -.178221709364D-09  .100000000000D+01  .196000000000D+04  .000000000000D+00
     .240000000000D+01  .000000000000D+00 -.111758708954D-07  .860000000000D+02
     .597606000000D+06  .400000000000D+01
19 17  7 30  0  0  0.0 -.493451021612D-03  .170530256582D-11  .000000000000D+00
     .105000000000D+03  .562500000000D+01  .400873840862D-08 -.272635609003D+01
     .298023223877D-07  .102189542959D-01  .837072730064D-05  .515367918777D+04
     .000000000000D+00  .838190317154D-07  .168383537041D+01 -.800937414169D-07
     .977618372198D+00  .225031250000D+03  .103586526159D+01 -.772103589785D-08
     .352157525917D-09  .100000000000D+01  .196000000000D+04  .000000000000D+00
     .340000000000D+01  .000000000000D+00 -.153668224812D-07  .105000000000D+03
     .597606000000D+06  .400000000000D+01
20 17  7 30  0  0  0.0  .481464900076D-03  .136424205266D-11  .000000000000D+00
     .106000000000D+03 -.412500000000D+02  .557916096588D-08 -.393382698928D+00
    -.204145908356D-05  .439847004600D-02  .770948827267D-05  .515371316147D+04
     .000000000000D+00  .186264514923D-08 -.269913496475D+01 -.204890966415D-07
     .927386617855D+00  .212718750000D+03  .162954981594D+01 -.863785980153D-08
    -.185007706314D-09  .100000000000D+01  .196000000000D+04  .000000000000D+00
     .340000000000D+01  .000000000000D+00 -.838190317154D-08  .106000000000D+03
     .597606000000D+06  .400000000000D+01
